0 TRAAC
1 00205U 61031B   13282.43008878  .00000048  00000-0  31438-4 0  3766
2 00205 032.4408 273.3880 0102289 138.4704 020.4171 13.62323921587276
0 TRAAC
1 00205U 61031B   13283.45235719  .00000031  00000-0  11076-4 0  3774
2 00205 032.4409 268.2806 0102349 146.2269 353.9857 13.62324020587410
0 TRAAC
1 00205U 61031B   13286.38945589  .00000027  00000-0  45200-5 0  3796
2 00205 032.4410 253.6062 0102431 168.4354 358.6435 13.62324012587816
0 TRAAC
1 00205U 61031B   13288.13624762  .00000054  00000-0  38238-4 0  3802
2 00205 032.4410 244.8790 0102489 181.6409 285.5831 13.62323931588051
0 TRAAC
1 00205U 61031B   13289.16924391  .00000063  00000-0  48868-4 0  3818
2 00205 032.4410 239.7181 0102529 189.4538 311.7913 13.62323928588196
0 TRAAC
1 00205U 61031B   13290.27097036  .00000074  00000-0  61397-4 0  3824
2 00205 032.4409 234.2137 0102583 197.7924 315.0727 13.62324044588343
0 TRAAC
1 00205U 61031B   13291.86263389  .00000074  00000-0  61199-4 0  3837
2 00205 032.4407 226.2616 0102626 209.8144 201.2146 13.62324212588563
0 TRAAC
1 00205U 61031B   13293.20192737  .00000054  00000-0  36430-4 0  3844
2 00205 032.4406 219.5704 0102613 219.9254 289.6392 13.62324382588746
0 TRAAC
1 00205U 61031B   13294.23049750  .00000041  00000-0  20841-4 0  3850
2 00205 032.4405 214.4315 0102614 227.6914 294.1539 13.62324528588888
0 TRAAC
1 00205U 61031B   13295.25208309  .00000037  00000-0  15823-4 0  3860
2 00205 032.4404 209.3275 0102604 235.4055 264.4133 13.62324644589023
